[{"OBJECT_NAME":"LEMUR-2-GREENBERG","OBJECT_ID":"2017-042N","EPOCH":"2026-03-09T11:05:17.256192","MEAN_MOTION":15.27971352,"ECCENTRICITY":0.00091572,"INCLINATION":97.3781,"RA_OF_ASC_NODE":249.8007,"ARG_OF_PERICENTER":4.0119,"MEAN_ANOMALY":356.1192,"EPHEMERIS_TYPE":0,"CLASSIFICATION_TYPE":"U","NORAD_CAT_ID":42837,"ELEMENT_SET_NO":999,"REV_AT_EPOCH":47314,"BSTAR":0.00072539172,"MEAN_MOTION_DOT":0.00019778,"MEAN_MOTION_DDOT":0},{"OBJECT_NAME":"STARLINK-30359","OBJECT_ID":"2023-134J","EPOCH":"2026-03-09T22:00:01.999584","MEAN_MOTION":15.25122722,"ECCENTRICITY":0.00021432,"INCLINATION":43.0006,"RA_OF_ASC_NODE":181.9136,"ARG_OF_PERICENTER":285.3673,"MEAN_ANOMALY":73.6955,"EPHEMERIS_TYPE":0,"CLASSIFICATION_TYPE":"U","NORAD_CAT_ID":57779,"ELEMENT_SET_NO":999,"REV_AT_EPOCH":557,"BSTAR":0.03249456,"MEAN_MOTION_DOT":0.00894721,"MEAN_MOTION_DDOT":0}]
